[{"OBJECT_NAME":"STARLINK-3287","OBJECT_ID":"2021-125S","EPOCH":"2026-03-09T18:16:42.439584","MEAN_MOTION":15.08847367,"ECCENTRICITY":0.00010995,"INCLINATION":53.2165,"RA_OF_ASC_NODE":248.7967,"ARG_OF_PERICENTER":109.8238,"MEAN_ANOMALY":250.2873,"EPHEMERIS_TYPE":0,"CLASSIFICATION_TYPE":"U","NORAD_CAT_ID":50172,"ELEMENT_SET_NO":999,"REV_AT_EPOCH":23664,"BSTAR":5.3615758e-5,"MEAN_MOTION_DOT":5.66e-6,"MEAN_MOTION_DDOT":0},{"OBJECT_NAME":"CZ-4B DEB","OBJECT_ID":"2004-035K","EPOCH":"2026-03-08T06:51:30.377664","MEAN_MOTION":15.09293825,"ECCENTRICITY":0.00031468,"INCLINATION":97.5843,"RA_OF_ASC_NODE":91.2716,"ARG_OF_PERICENTER":107.6302,"MEAN_ANOMALY":252.527,"EPHEMERIS_TYPE":0,"CLASSIFICATION_TYPE":"U","NORAD_CAT_ID":29043,"ELEMENT_SET_NO":999,"REV_AT_EPOCH":10418,"BSTAR":0.00031897975,"MEAN_MOTION_DOT":5.021e-5,"MEAN_MOTION_DDOT":0}]
